[{"OBJECT_NAME":"BEIDOU-3 IGSO-3","OBJECT_ID":"2019-073A","EPOCH":"2023-09-14T11:53:47.569344","MEAN_MOTION":1.00279082,"ECCENTRICITY":0.0035238,"INCLINATION":56.5172,"RA_OF_ASC_NODE":291.6443,"ARG_OF_PERICENTER":190.2307,"MEAN_ANOMALY":169.797,"EPHEMERIS_TYPE":0,"CLASSIFICATION_TYPE":"U","NORAD_CAT_ID":44709,"ELEMENT_SET_NO":999,"REV_AT_EPOCH":1436,"BSTAR":0,"MEAN_MOTION_DOT":-1.4e-6,"MEAN_MOTION_DDOT":0},{"OBJECT_NAME":"STARLINK-1007","OBJECT_ID":"2019-074A","EPOCH":"2023-09-15T10:15:26.316288","MEAN_MOTION":15.06395797,"ECCENTRICITY":0.0001553,"INCLINATION":53.0534,"RA_OF_ASC_NODE":294.9921,"ARG_OF_PERICENTER":87.2359,"MEAN_ANOMALY":272.8808,"EPHEMERIS_TYPE":0,"CLASSIFICATION_TYPE":"U","NORAD_CAT_ID":44713,"ELEMENT_SET_NO":999,"REV_AT_EPOCH":21215,"BSTAR":0.00056405,"MEAN_MOTION_DOT":8.129e-5,"MEAN_MOTION_DDOT":0},{"OBJECT_NAME":"STARLINK-1008","OBJECT_ID":"2019-074B","EPOCH":"2023-09-15T08:09:24.177024","MEAN_MOTION":15.06385078,"ECCENTRICITY":0.0001522,"INCLINATION":53.0546,"RA_OF_ASC_NODE":295.3835,"ARG_OF_PERICENTER":97.7661,"MEAN_ANOMALY":262.3501,"EPHEMERIS_TYPE":0,"CLASSIFICATION_TYPE":"U","NORAD_CAT_ID":44714,"ELEMENT_SET_NO":999,"REV_AT_EPOCH":21214,"BSTAR":-2.8257e-5,"MEAN_MOTION_DOT":-7.02e-6,"MEAN_MOTION_DDOT":0},{"OBJECT_NAME":"STARLINK-1009","OBJECT_ID":"2019-074C","EPOCH":"2023-09-15T09:29:01.486176","MEAN_MOTION":15.06394755,"ECCENTRICITY":0.0001489,"INCLINATION":53.0545,"RA_OF_ASC_NODE":295.1365,"ARG_OF_PERICENTER":96.7707,"MEAN_ANOMALY":263.3452,"EPHEMERIS_TYPE":0,"CLASSIFICATION_TYPE":"U","NORAD_CAT_ID":44715,"ELEMENT_SET_NO":999,"REV_AT_EPOCH":21214,"BSTAR":0.00045284,"MEAN_MOTION_DOT":6.469e-5,"MEAN_MOTION_DDOT":0},{"OBJECT_NAME":"STARLINK-1010","OBJECT_ID":"2019-074D","EPOCH":"2023-09-15T11:31:06.790080","MEAN_MOTION":15.06393464,"ECCENTRICITY":0.0001353,"INCLINATION":53.0538,"RA_OF_ASC_NODE":294.7553,"ARG_OF_PERICENTER":88.0894,"MEAN_ANOMALY":272.025,"EPHEMERIS_TYPE":0,"CLASSIFICATION_TYPE":"U","NORAD_CAT_ID":44716,"ELEMENT_SET_NO":999,"REV_AT_EPOCH":21231,"BSTAR":0.00075106,"MEAN_MOTION_DOT":0.00010921,"MEAN_MOTION_DDOT":0},{"OBJECT_NAME":"STARLINK-1011","OBJECT_ID":"2019-074E","EPOCH":"2023-09-15T13:04:00.018624","MEAN_MOTION":15.06395032,"ECCENTRICITY":0.0001429,"INCLINATION":53.0534,"RA_OF_ASC_NODE":314.4669,"ARG_OF_PERICENTER":88.6825,"MEAN_ANOMALY":271.4328,"EPHEMERIS_TYPE":0,"CLASSIFICATION_TYPE":"U","NORAD_CAT_ID":44717,"ELEMENT_SET_NO":999,"REV_AT_EPOCH":21189,"BSTAR":0.00078216,"MEAN_MOTION_DOT":0.00011386,"MEAN_MOTION_DDOT":0},{"OBJECT_NAME":"STARLINK-1012","OBJECT_ID":"2019-074F","EPOCH":"2023-09-15T09:13:06.398976","MEAN_MOTION":15.06396022,"ECCENTRICITY":0.000139,"INCLINATION":53.0534,"RA_OF_ASC_NODE":295.1849,"ARG_OF_PERICENTER":97.4351,"MEAN_ANOMALY":262.6796,"EPHEMERIS_TYPE":0,"CLASSIFICATION_TYPE":"U","NORAD_CAT_ID":44718,"ELEMENT_SET_NO":999,"REV_AT_EPOCH":21214,"BSTAR":0.00032394,"MEAN_MOTION_DOT":4.546e-5,"MEAN_MOTION_DDOT":0},{"OBJECT_NAME":"STARLINK-1013","OBJECT_ID":"2019-074G","EPOCH":"2023-09-15T09:23:43.243008","MEAN_MOTION":15.06392533,"ECCENTRICITY":0.0001446,"INCLINATION":53.0549,"RA_OF_ASC_NODE":295.1507,"ARG_OF_PERICENTER":94.5371,"MEAN_ANOMALY":265.5783,"EPHEMERIS_TYPE":0,"CLASSIFICATION_TYPE":"U","NORAD_CAT_ID":44719,"ELEMENT_SET_NO":999,"REV_AT_EPOCH":21327,"BSTAR":0.00045833,"MEAN_MOTION_DOT":6.55e-5,"MEAN_MOTION_DDOT":0},{"OBJECT_NAME":"STARLINK-1014","OBJECT_ID":"2019-074H","EPOCH":"2023-09-15T11:24:26.013312","MEAN_MOTION":15.06391753,"ECCENTRICITY":0.0001497,"INCLINATION":53.0533,"RA_OF_ASC_NODE":294.7651,"ARG_OF_PERICENTER":101.1082,"MEAN_ANOMALY":259.0075,"EPHEMERIS_TYPE":0,"CLASSIFICATION_TYPE":"U","NORAD_CAT_ID":44720,"ELEMENT_SET_NO":999,"REV_AT_EPOCH":21216,"BSTAR":0.00016807,"MEAN_MOTION_DOT":2.222e-5,"MEAN_MOTION_DDOT":0},{"OBJECT_NAME":"STARLINK-1015","OBJECT_ID":"2019-074J","EPOCH":"2023-09-15T12:45:24.905664","MEAN_MOTION":15.06392493,"ECCENTRICITY":0.0001464,"INCLINATION":53.0534,"RA_OF_ASC_NODE":294.5242,"ARG_OF_PERICENTER":94.0341,"MEAN_ANOMALY":266.0816,"EPHEMERIS_TYPE":0,"CLASSIFICATION_TYPE":"U","NORAD_CAT_ID":44721,"ELEMENT_SET_NO":999,"REV_AT_EPOCH":21216,"BSTAR":0.00048446,"MEAN_MOTION_DOT":6.94e-5,"MEAN_MOTION_DDOT":0},{"OBJECT_NAME":"STARLINK-1017","OBJECT_ID":"2019-074L","EPOCH":"2023-09-15T10:00:52.463232","MEAN_MOTION":15.06390337,"ECCENTRICITY":0.0001536,"INCLINATION":53.0559,"RA_OF_ASC_NODE":295.0354,"ARG_OF_PERICENTER":93.3804,"MEAN_ANOMALY":266.7361,"EPHEMERIS_TYPE":0,"CLASSIFICATION_TYPE":"U","NORAD_CAT_ID":44723,"ELEMENT_SET_NO":999,"REV_AT_EPOCH":21215,"BSTAR":0.00012521,"MEAN_MOTION_DOT":1.583e-5,"MEAN_MOTION_DDOT":0},{"OBJECT_NAME":"STARLINK-1019","OBJECT_ID":"2019-074M","EPOCH":"2023-09-15T12:18:52.774848","MEAN_MOTION":15.06392723,"ECCENTRICITY":0.0001462,"INCLINATION":53.0529,"RA_OF_ASC_NODE":294.6068,"ARG_OF_PERICENTER":93.2588,"MEAN_ANOMALY":266.8568,"EPHEMERIS_TYPE":0,"CLASSIFICATION_TYPE":"U","NORAD_CAT_ID":44724,"ELEMENT_SET_NO":999,"REV_AT_EPOCH":21216,"BSTAR":0.00049089,"MEAN_MOTION_DOT":7.036e-5,"MEAN_MOTION_DDOT":0},{"OBJECT_NAME":"STARLINK-1020","OBJECT_ID":"2019-074N","EPOCH":"2023-09-15T10:51:18.273312","MEAN_MOTION":15.06393537,"ECCENTRICITY":0.0001446,"INCLINATION":53.055,"RA_OF_ASC_NODE":314.8755,"ARG_OF_PERICENTER":88.8531,"MEAN_ANOMALY":271.2623,"EPHEMERIS_TYPE":0,"CLASSIFICATION_TYPE":"U","NORAD_CAT_ID":44725,"ELEMENT_SET_NO":999,"REV_AT_EPOCH":21187,"BSTAR":0.00071902,"MEAN_MOTION_DOT":0.00010443,"MEAN_MOTION_DDOT":0},{"OBJECT_NAME":"STARLINK-1021","OBJECT_ID":"2019-074P","EPOCH":"2023-09-15T09:02:29.471136","MEAN_MOTION":15.06396155,"ECCENTRICITY":0.0001574,"INCLINATION":53.0531,"RA_OF_ASC_NODE":295.2193,"ARG_OF_PERICENTER":96.4018,"MEAN_ANOMALY":263.715,"EPHEMERIS_TYPE":0,"CLASSIFICATION_TYPE":"U","NORAD_CAT_ID":44726,"ELEMENT_SET_NO":999,"REV_AT_EPOCH":21214,"BSTAR":-4.6216e-5,"MEAN_MOTION_DOT":-9.7e-6,"MEAN_MOTION_DDOT":0},{"OBJECT_NAME":"STARLINK-1024","OBJECT_ID":"2019-074S","EPOCH":"2023-09-15T09:22:28.530336","MEAN_MOTION":15.52569363,"ECCENTRICITY":0.0008767,"INCLINATION":53.0174,"RA_OF_ASC_NODE":225.6039,"ARG_OF_PERICENTER":82.9082,"MEAN_ANOMALY":277.2923,"EPHEMERIS_TYPE":0,"CLASSIFICATION_TYPE":"U","NORAD_CAT_ID":44729,"ELEMENT_SET_NO":999,"REV_AT_EPOCH":21307,"BSTAR":0.00065523,"MEAN_MOTION_DOT":0.00040736,"MEAN_MOTION_DDOT":0},{"OBJECT_NAME":"STARLINK-1026","OBJECT_ID":"2019-074U","EPOCH":"2023-09-15T14:00:01.000224","MEAN_MOTION":15.9093649,"ECCENTRICITY":9.53e-5,"INCLINATION":53.0503,"RA_OF_ASC_NODE":261.7121,"ARG_OF_PERICENTER":98.7286,"MEAN_ANOMALY":106.8037,"EPHEMERIS_TYPE":0,"CLASSIFICATION_TYPE":"U","NORAD_CAT_ID":44731,"ELEMENT_SET_NO":999,"REV_AT_EPOCH":21279,"BSTAR":-4.1279e-5,"MEAN_MOTION_DOT":-0.0001679,"MEAN_MOTION_DDOT":1.1119e-5},{"OBJECT_NAME":"STARLINK-1027","OBJECT_ID":"2019-074V","EPOCH":"2023-09-15T10:35:22.986528","MEAN_MOTION":15.06387471,"ECCENTRICITY":0.0001747,"INCLINATION":53.0567,"RA_OF_ASC_NODE":314.9264,"ARG_OF_PERICENTER":112.1212,"MEAN_ANOMALY":247.9963,"EPHEMERIS_TYPE":0,"CLASSIFICATION_TYPE":"U","NORAD_CAT_ID":44732,"ELEMENT_SET_NO":999,"REV_AT_EPOCH":21187,"BSTAR":0.00048906,"MEAN_MOTION_DOT":7.008e-5,"MEAN_MOTION_DDOT":0},{"OBJECT_NAME":"STARLINK-1028","OBJECT_ID":"2019-074W","EPOCH":"2023-09-15T08:57:09.692640","MEAN_MOTION":15.06392991,"ECCENTRICITY":0.0001361,"INCLINATION":53.0543,"RA_OF_ASC_NODE":295.2351,"ARG_OF_PERICENTER":86.6468,"MEAN_ANOMALY":273.4677,"EPHEMERIS_TYPE":0,"CLASSIFICATION_TYPE":"U","NORAD_CAT_ID":44733,"ELEMENT_SET_NO":999,"REV_AT_EPOCH":21214,"BSTAR":1.9973e-5,"MEAN_MOTION_DOT":1.6e-7,"MEAN_MOTION_DDOT":0},{"OBJECT_NAME":"STARLINK-1029","OBJECT_ID":"2019-074X","EPOCH":"2023-09-15T06:07:20.107776","MEAN_MOTION":15.06387746,"ECCENTRICITY":0.0001356,"INCLINATION":53.0542,"RA_OF_ASC_NODE":215.7641,"ARG_OF_PERICENTER":94.431,"MEAN_ANOMALY":265.6834,"EPHEMERIS_TYPE":0,"CLASSIFICATION_TYPE":"U","NORAD_CAT_ID":44734,"ELEMENT_SET_NO":999,"REV_AT_EPOCH":21339,"BSTAR":0.00020929,"MEAN_MOTION_DOT":2.836e-5,"MEAN_MOTION_DDOT":0},{"OBJECT_NAME":"STARLINK-1030","OBJECT_ID":"2019-074Y","EPOCH":"2023-09-15T10:45:59.863392","MEAN_MOTION":15.06395237,"ECCENTRICITY":0.0001429,"INCLINATION":53.054,"RA_OF_ASC_NODE":314.8985,"ARG_OF_PERICENTER":86.9508,"MEAN_ANOMALY":273.1644,"EPHEMERIS_TYPE":0,"CLASSIFICATION_TYPE":"U","NORAD_CAT_ID":44735,"ELEMENT_SET_NO":999,"REV_AT_EPOCH":21187,"BSTAR":0.00082152,"MEAN_MOTION_DOT":0.00011975,"MEAN_MOTION_DDOT":0},{"OBJECT_NAME":"STARLINK-1031","OBJECT_ID":"2019-074Z","EPOCH":"2023-09-15T09:31:41.378880","MEAN_MOTION":15.06392828,"ECCENTRICITY":0.0001432,"INCLINATION":53.0549,"RA_OF_ASC_NODE":315.1284,"ARG_OF_PERICENTER":100.3796,"MEAN_ANOMALY":259.7355,"EPHEMERIS_TYPE":0,"CLASSIFICATION_TYPE":"U","NORAD_CAT_ID":44736,"ELEMENT_SET_NO":999,"REV_AT_EPOCH":21187,"BSTAR":0.00079154,"MEAN_MOTION_DOT":0.00011526,"MEAN_MOTION_DDOT":0},{"OBJECT_NAME":"STARLINK-1032","OBJECT_ID":"2019-074AA","EPOCH":"2023-09-15T11:23:08.467584","MEAN_MOTION":15.0640951,"ECCENTRICITY":0.000133,"INCLINATION":53.0531,"RA_OF_ASC_NODE":314.7806,"ARG_OF_PERICENTER":82.9966,"MEAN_ANOMALY":277.1174,"EPHEMERIS_TYPE":0,"CLASSIFICATION_TYPE":"U","NORAD_CAT_ID":44737,"ELEMENT_SET_NO":999,"REV_AT_EPOCH":21188,"BSTAR":0.0011167,"MEAN_MOTION_DOT":0.00016395,"MEAN_MOTION_DDOT":0},{"OBJECT_NAME":"STARLINK-1033","OBJECT_ID":"2019-074AB","EPOCH":"2023-09-15T14:00:01.000224","MEAN_MOTION":15.86093361,"ECCENTRICITY":0.0006314,"INCLINATION":53.0428,"RA_OF_ASC_NODE":250.2147,"ARG_OF_PERICENTER":61.3587,"MEAN_ANOMALY":114.727,"EPHEMERIS_TYPE":0,"CLASSIFICATION_TYPE":"U","NORAD_CAT_ID":44738,"ELEMENT_SET_NO":999,"REV_AT_EPOCH":21295,"BSTAR":0.00061021,"MEAN_MOTION_DOT":0.00156443,"MEAN_MOTION_DDOT":0}]
